OBJECT_NAME,OBJECT_ID,EPOCH,MEAN_MOTION,ECCENTRICITY,INCLINATION,RA_OF_ASC_NODE,ARG_OF_PERICENTER,MEAN_ANOMALY,EPHEMERIS_TYPE,CLASSIFICATION_TYPE,NORAD_CAT_ID,ELEMENT_SET_NO,REV_AT_EPOCH,BSTAR,MEAN_MOTION_DOT,MEAN_MOTION_DDOT
STARLINK-31573,2024-057Q,2026-06-15T08:00:01.999008,15.27568424,.000153,43.0032,355.2095,260.7669,230.9605,0,U,59334,999,567,.19686E-3,.5157E-4,0
STARLINK-31588,2024-057R,2026-06-14T06:28:19.614144,15.27632896,.0002373,43.0090,1.2953,257.4418,102.6169,0,U,59335,999,12461,-.42751E-3,-.12028E-3,0
STARLINK-31596,2024-057S,2026-06-14T06:33:53.887104,15.27575247,.0001966,43.0087,1.3331,268.7312,91.3315,0,U,59336,999,12461,.30444E-4,.575E-5,0
STARLINK-31612,2024-057T,2026-06-14T19:40:26.933088,15.27580247,.00012011,43.0103,358.5562,253.3459,106.7261,0,U,59337,999,12469,.46265871E-4,.1011E-4,0
STARLINK-31550,2024-057U,2026-06-14T20:17:27.084768,15.27582435,.00005324,43.0056,358.7453,282.3820,77.6972,0,U,59338,999,12469,.22801452E-4,.366E-5,0
STARLINK-31473,2024-057V,2026-06-14T19:23:47.978880,15.27577053,.00014959,42.9993,358.4632,272.2017,87.8663,0,U,59339,999,12469,.30215285E-4,.569E-5,0
STARLINK-31562,2024-057W,2026-06-14T07:34:14.350368,15.27571351,.00015404,43.0059,16.3705,280.7946,79.2732,0,U,59340,999,12444,-.27125758E-4,-.1008E-4,0
STARLINK-31600,2024-057X,2026-06-13T07:24:25.552512,15.27572749,.00016746,43.0084,14.7772,269.5623,90.5037,0,U,59341,999,12437,.232016E-6,-.256E-5,0
STARLINK-31628,2024-057Y,2026-06-14T19:53:24.558144,15.27577835,.0001223,43.0039,358.6183,262.7828,97.2884,0,U,59342,999,12469,.11672948E-3,.2951E-4,0
STARLINK-31605,2024-060A,2026-06-15T10:13:45.084864,15.27580019,.0001899,43.0049,57.2237,241.3666,118.6994,0,U,59348,999,12507,.28801E-4,.53E-5,0
STARLINK-31532,2024-060B,2026-06-13T11:40:16.933440,15.27574826,.00002659,43.0060,78.8525,289.3032,70.7791,0,U,59349,999,12476,-.2163644E-5,-.321E-5,0
STARLINK-31593,2024-060C,2026-06-15T10:02:25.236096,15.27584163,.0002578,42.9954,67.5532,276.9130,83.1428,0,U,59350,999,12501,-.28741E-3,-.8164E-4,0
STARLINK-31555,2024-060D,2026-06-15T10:56:03.910848,15.27589255,.0001113,43.0036,67.8341,279.3687,80.7039,0,U,59351,999,12506,.43006E-4,.922E-5,0
STARLINK-31561,2024-060E,2026-06-15T00:33:47.749248,15.27554191,.00024066,42.9876,69.7460,282.6756,77.3826,0,U,59352,999,12495,-.13593531E-3,-.3998E-4,0
STARLINK-31413,2024-060F,2026-06-15T10:19:03.640800,15.27590328,.000068,43.0020,67.6440,280.1060,79.9715,0,U,59353,999,12501,.8684E-4,.2129E-4,0
STARLINK-31422,2024-060G,2026-06-14T10:21:02.202336,15.27571373,.00012023,43.0008,73.9029,274.4742,85.5972,0,U,59354,999,12485,-.14029672E-4,-.648E-5,0
STARLINK-31416,2024-060H,2026-06-15T10:50:32.374176,15.27572822,.0001746,42.9826,67.7987,120.4461,239.6563,0,U,59355,999,12501,.22791E-4,.365E-5,0
STARLINK-31552,2024-060J,2026-06-15T00:22:53.582016,15.27578690,.00007205,43.0037,70.5662,268.3199,91.7571,0,U,59356,999,12494,.15667531E-4,.169E-5,0
STARLINK-31557,2024-060K,2026-06-14T10:06:42.178464,15.27578109,.00012677,43.0002,69.4729,265.9882,94.0825,0,U,59357,999,12490,-.7843667E-5,-.478E-5,0
STARLINK-31559,2024-060L,2026-06-14T10:57:49.081248,15.27574555,.00020965,43.0100,73.2375,275.4992,84.5621,0,U,59358,999,12486,-.11695669E-4,-.584E-5,0
STARLINK-31501,2024-060M,2026-06-14T14:46:50.526048,15.27575438,.0001332,43.0020,72.7140,271.6345,88.4354,0,U,59359,999,12488,.40771E-5,-.15E-5,0
STARLINK-31549,2024-060N,2026-06-15T10:13:31.018944,15.27571039,.0001013,43.0013,67.6117,275.9622,84.1114,0,U,59360,999,12501,.39724E-4,.831E-5,0
STARLINK-31560,2024-060P,2026-06-15T00:02:31.870464,15.27579372,.00013547,43.0035,70.4405,264.0636,96.0062,0,U,59361,999,12494,.27531657E-4,.495E-5,0
STARLINK-31571,2024-060Q,2026-06-15T00:06:13.377600,15.27589539,.00018297,43.0121,70.4676,280.2389,79.8256,0,U,59362,999,12494,.52786021E-4,.1191E-4,0
STARLINK-31553,2024-060R,2026-06-14T23:51:00.167616,15.27561106,.00013312,43.0045,63.4515,263.7593,96.3107,0,U,59363,999,12502,-.42716956E-4,-.1437E-4,0
STARLINK-31547,2024-060S,2026-06-14T23:32:57.319872,15.27577617,.00011086,43.0028,59.0422,264.4217,95.6509,0,U,59364,999,12507,.1438026E-4,.134E-5,0
STARLINK-31537,2024-060T,2026-06-14T00:44:59.671680,15.27570491,.00012713,43.0021,76.0579,272.5037,87.5669,0,U,59365,999,12479,-.24690282E-4,-.941E-5,0
STARLINK-31451,2024-060U,2026-06-15T10:07:57.731808,15.27570307,.0001318,42.9992,67.5817,282.3776,77.6928,0,U,59366,999,12501,.67724E-4,.1601E-4,0
STARLINK-31428,2024-060V,2026-06-15T10:24:37.022112,15.27575404,.0001024,43.0059,67.6690,279.8972,80.1764,0,U,59367,999,12501,.37133E-4,.76E-5,0
STARLINK-31419,2024-060W,2026-06-14T11:01:31.302912,15.27578316,.00014943,43.0020,73.2531,276.3603,83.7078,0,U,59368,999,12486,.16168534E-4,.183E-5,0
