STARLINK-31573          
1 59334U 24057Q   26166.33335647  .00005157  00000+0  19686-3 0  9997
2 59334  43.0032 355.2095 0001530 260.7669 230.9605 15.27568424  5679
STARLINK-31588          
1 59335U 24057R   26165.26967146 -.00012028  00000+0 -42751-3 0  9990
2 59335  43.0090   1.2953 0002373 257.4418 102.6169 15.27632896124617
STARLINK-31596          
1 59336U 24057S   26165.27354036  .00000575  00000+0  30444-4 0  9999
2 59336  43.0087   1.3331 0001966 268.7312  91.3315 15.27575247124613
STARLINK-31612          
1 59337U 24057T   26165.81975617  .00001011  00000+0  46266-4 0  9999
2 59337  43.0103 358.5562 0001201 253.3459 106.7261 15.27580247124695
STARLINK-31550          
1 59338U 24057U   26165.84545237  .00000366  00000+0  22801-4 0  9995
2 59338  43.0056 358.7453 0000532 282.3820  77.6972 15.27582435124690
STARLINK-31473          
1 59339U 24057V   26165.80819420  .00000569  00000+0  30215-4 0  9993
2 59339  42.9993 358.4632 0001495 272.2017  87.8663 15.27577053124690
STARLINK-31562          
1 59340U 24057W   26165.31544387 -.00001008  00000+0 -27126-4 0  9996
2 59340  43.0059  16.3705 0001540 280.7946  79.2732 15.27571351124444
STARLINK-31600          
1 59341U 24057X   26164.30862908 -.00000256  00000+0  23202-6 0  9993
2 59341  43.0084  14.7772 0001674 269.5623  90.5037 15.27572749124372
STARLINK-31628          
1 59342U 24057Y   26165.82875646  .00002951  00000+0  11673-3 0  9994
2 59342  43.0039 358.6183 0001223 262.7828  97.2884 15.27577835124691
STARLINK-31605          
1 59348U 24060A   26166.42621626  .00000530  00000+0  28801-4 0  9991
2 59348  43.0049  57.2237 0001899 241.3666 118.6994 15.27580019125073
STARLINK-31532          
1 59349U 24060B   26164.48630710 -.00000321  00000+0 -21636-5 0  9990
2 59349  43.0060  78.8525 0000265 289.3032  70.7791 15.27574826124768
STARLINK-31593          
1 59350U 24060C   26166.41834764 -.00008164  00000+0 -28741-3 0  9997
2 59350  42.9954  67.5532 0002578 276.9130  83.1428 15.27584163125012
STARLINK-31555          
1 59351U 24060D   26166.45560082  .00000922  00000+0  43006-4 0  9995
2 59351  43.0036  67.8341 0001113 279.3687  80.7039 15.27589255125068
STARLINK-31561          
1 59352U 24060E   26166.02346932 -.00003998  00000+0 -13594-3 0  9991
2 59352  42.9876  69.7460 0002406 282.6756  77.3826 15.27554191124956
STARLINK-31413          
1 59353U 24060F   26166.42990325  .00002129  00000+0  86840-4 0  9995
2 59353  43.0020  67.6440 0000680 280.1060  79.9715 15.27590328125013
STARLINK-31422          
1 59354U 24060G   26165.43127549 -.00000648  00000+0 -14030-4 0  9994
2 59354  43.0008  73.9029 0001202 274.4742  85.5972 15.27571373124855
STARLINK-31416          
1 59355U 24060H   26166.45176359  .00000365  00000+0  22791-4 0  9998
2 59355  42.9826  67.7987 0001746 120.4461 239.6563 15.27572822125014
STARLINK-31552          
1 59356U 24060J   26166.01589794  .00000169  00000+0  15668-4 0  9999
2 59356  43.0037  70.5662 0000720 268.3199  91.7571 15.27578690124940
STARLINK-31557          
1 59357U 24060K   26165.42132151 -.00000478  00000+0 -78437-5 0  9994
2 59357  43.0002  69.4729 0001267 265.9882  94.0825 15.27578109124902
STARLINK-31559          
1 59358U 24060L   26165.45681807 -.00000584  00000+0 -11696-4 0  9996
2 59358  43.0100  73.2375 0002096 275.4992  84.5621 15.27574555124865
STARLINK-31501          
1 59359U 24060M   26165.61586257 -.00000150  00000+0  40771-5 0  9993
2 59359  43.0020  72.7140 0001332 271.6345  88.4354 15.27575438124882
STARLINK-31549          
1 59360U 24060N   26166.42605346  .00000831  00000+0  39724-4 0  9996
2 59360  43.0013  67.6117 0001013 275.9622  84.1114 15.27571039125010
STARLINK-31560          
1 59361U 24060P   26166.00175776  .00000495  00000+0  27532-4 0  9990
2 59361  43.0035  70.4405 0001354 264.0636  96.0062 15.27579372124942
STARLINK-31571          
1 59362U 24060Q   26166.00432150  .00001191  00000+0  52786-4 0  9996
2 59362  43.0121  70.4676 0001829 280.2389  79.8256 15.27589539124941
STARLINK-31553          
1 59363U 24060R   26165.99375194 -.00001437  00000+0 -42717-4 0  9996
2 59363  43.0045  63.4515 0001331 263.7593  96.3107 15.27561106125021
STARLINK-31547          
1 59364U 24060S   26165.98121898  .00000134  00000+0  14380-4 0  9992
2 59364  43.0028  59.0422 0001108 264.4217  95.6509 15.27577617125071
STARLINK-31537          
1 59365U 24060T   26165.03124620 -.00000941  00000+0 -24690-4 0  9998
2 59365  43.0021  76.0579 0001271 272.5037  87.5669 15.27570491124796
STARLINK-31451          
1 59366U 24060U   26166.42219597  .00001601  00000+0  67724-4 0  9998
2 59366  42.9992  67.5817 0001318 282.3776  77.6928 15.27570307125013
STARLINK-31428          
1 59367U 24060V   26166.43376183  .00000760  00000+0  37133-4 0  9991
2 59367  43.0059  67.6690 0001024 279.8972  80.1764 15.27575404125013
STARLINK-31419          
1 59368U 24060W   26165.45939008  .00000183  00000+0  16169-4 0  9999
2 59368  43.0020  73.2531 0001494 276.3603  83.7078 15.27578316124867
